NORAD_CAT_ID,OBJECT_NAME,OBJECT_TYPE,EPOCH,MEAN_MOTION,ECCENTRICITY,INCLINATION,RA_OF_ASC_NODE,ARG_OF_PERICENTER,MEAN_ANOMALY,BSTAR,MEAN_MOTION_DOT,MEAN_MOTION_DDOT,TLE_LINE0,TLE_LINE1,TLE_LINE2,SEMIMAJOR_AXIS,PERIOD,APOGEE,PERIGEE,DECAYED
51472.0,STARLINK-3415,PAYLOAD,2023-06-26 00:55:19,15.08843401,0.000109,53.2176,32.8584,94.5831,265.5285,0.00015083,2.114e-05,0.0,0 STARLINK-3415,1 51472U 22010S   23177.03841579  .00002114  00000-0  15083-3 0  9999,2 51472  53.2176  32.8584 0001090  94.5831 265.5285 15.08843401 78221,6917.87,95.437,540.489,538.981,0.0
51472.0,STARLINK-3415,PAYLOAD,2023-06-26 13:38:24,15.08833312,0.0001214,53.2165,30.4794,95.5999,264.5131,0.00010126,1.324e-05,0.0,0 STARLINK-3415,1 51472U 22010S   23177.56834236  .00001324  00000-0  10126-3 0  9994,2 51472  53.2165  30.4794 0001214  95.5999 264.5131 15.08833312 78308,6917.901,95.438,540.606,538.926,0.0
51472.0,STARLINK-3415,PAYLOAD,2023-06-27 19:50:44,15.0884181,0.0001059,53.2171,24.8307,95.4592,264.6521,0.00017084,2.432e-05,0.0,0 STARLINK-3415,1 51472U 22010S   23178.82690198  .00002432  00000-0  17084-3 0  9992,2 51472  53.2171  24.8307 0001059  95.4592 264.6521 15.08841810 78493,6917.875,95.437,540.472,539.007,0.0
51472.0,STARLINK-3415,PAYLOAD,2023-06-28 18:06:08,15.08835226,0.0001128,53.2176,20.6683,88.7935,271.3186,5.7307e-05,6.24e-06,0.0,0 STARLINK-3415,1 51472U 22010S   23179.75426746  .00000624  00000-0  57307-4 0  9995,2 51472  53.2176  20.6683 0001128  88.7935 271.3186 15.08835226 78634,6917.895,95.438,540.54,538.98,0.0
51472.0,STARLINK-3415,PAYLOAD,2023-06-29 19:32:18,15.0884759,0.0001144,53.2178,15.9104,82.5407,277.5715,0.00018197,2.61e-05,0.0,0 STARLINK-3415,1 51472U 22010S   23180.81410305  .00002610  00000-0  18197-3 0  9998,2 51472  53.2178  15.9104 0001144  82.5407 277.5715 15.08847590 78795,6917.857,95.437,540.514,538.931,0.0
51472.0,STARLINK-3415,PAYLOAD,2023-06-30 16:12:19,15.08838412,9.13e-05,53.2162,12.0426,84.0925,276.0171,5.3192e-05,5.59e-06,0.0,0 STARLINK-3415,1 51472U 22010S   23181.67522673  .00000559  00000-0  53192-4 0  9990,2 51472  53.2162  12.0426 0000913  84.0925 276.0171 15.08838412 78926,6917.885,95.438,540.382,539.119,0.0
51472.0,STARLINK-3415,PAYLOAD,2023-07-01 19:13:52,15.08840745,0.0001058,53.2183,6.9891,82.563,277.5482,1.3527e-05,-7.2e-07,0.0,0 STARLINK-3415,1 51472U 22010S   23182.80130681 -.00000072  00000-0  13527-4 0  9999,2 51472  53.2183   6.9891 0001058  82.5630 277.5482 15.08840745 79096,6917.878,95.438,540.475,539.011,0.0
51472.0,STARLINK-3415,PAYLOAD,2023-07-03 04:36:58,15.08838327,0.0001069,53.2181,0.7453,80.7127,279.3986,5.9113e-05,6.53e-06,0.0,0 STARLINK-3415,1 51472U 22010S   23184.19234857  .00000653  00000-0  59113-4 0  9998,2 51472  53.2181   0.7453 0001069  80.7127 279.3986 15.08838327 79309,6917.886,95.438,540.49,539.011,0.0
51472.0,STARLINK-3415,PAYLOAD,2023-07-04 17:10:51,15.08839642,0.0001287,53.2182,353.9077,85.9292,274.1848,1.326e-05,-7.7e-07,0.0,0 STARLINK-3415,1 51472U 22010S   23185.71587108 -.00000077  00000-0  13260-4 0  9991,2 51472  53.2182 353.9077 0001287  85.9292 274.1848 15.08839642 79533,6917.881,95.438,540.637,538.856,0.0
51472.0,STARLINK-3415,PAYLOAD,2023-07-05 18:37:01,15.08837855,0.0001234,53.2183,349.146,80.0724,280.0407,6.7348e-06,-1.81e-06,0.0,0 STARLINK-3415,1 51472U 22010S   23186.77571428 -.00000181  00000-0  67348-5 0  9999,2 51472  53.2183 349.1460 0001234  80.0724 280.0407 15.08837855 79693,6917.887,95.438,540.606,538.898,0.0
51472.0,STARLINK-3415,PAYLOAD,2023-07-06 16:52:24,15.08847387,0.0001185,53.2176,344.9849,75.4322,284.6801,9.8299e-05,1.277e-05,0.0,0 STARLINK-3415,1 51472U 22010S   23187.70306597  .00001277  00000-0  98299-4 0  9990,2 51472  53.2176 344.9849 0001185  75.4322 284.6801 15.08847387 79831,6917.858,95.437,540.543,538.903,0.0
51472.0,STARLINK-3415,PAYLOAD,2023-07-07 10:21:40,15.08828594,0.0001195,53.2176,341.7138,80.2903,279.8224,0.00017999,2.577e-05,0.0,0 STARLINK-3415,1 51472U 22010S   23188.43171544  .00002577  00000-0  17999-3 0  9994,2 51472  53.2176 341.7138 0001195  80.2903 279.8224 15.08828594 79943,6917.915,95.438,540.607,538.954,0.0
51472.0,STARLINK-3415,PAYLOAD,2023-07-07 16:43:12,15.08844271,0.0001128,53.2188,340.5248,82.8179,277.2941,7.6046e-05,9.23e-06,0.0,0 STARLINK-3415,1 51472U 22010S   23188.69666840  .00000923  00000-0  76046-4 0  9992,2 51472  53.2188 340.5248 0001128  82.8179 277.2941 15.08844271 79986,6917.867,95.437,540.513,538.952,0.0
51472.0,STARLINK-3415,PAYLOAD,2023-07-08 18:09:22,15.0884545,0.0001044,53.2189,335.766,84.7844,275.3267,-2.6005e-06,-3.29e-06,0.0,0 STARLINK-3415,1 51472U 22010S   23189.75650808 -.00000329  00000-0 -26005-5 0  9990,2 51472  53.2189 335.7660 0001044  84.7844 275.3267 15.08845450 80148,6917.864,95.437,540.451,539.007,0.0
51472.0,STARLINK-3415,PAYLOAD,2023-07-09 10:03:14,15.0882586,0.0001154,53.2187,332.7919,92.9753,267.1371,7.8024e-05,9.54e-06,0.0,0 STARLINK-3415,1 51472U 22010S   23190.41891855  .00000954  00000-0  78024-4 0  9993,2 51472  53.2187 332.7919 0001154  92.9753 267.1371 15.08825860 80241,6917.924,95.438,540.587,538.99,0.0
51472.0,STARLINK-3415,PAYLOAD,2023-07-09 16:24:46,15.08837083,0.0001124,53.2187,331.6017,98.1057,262.0063,-2.1874e-05,-6.36e-06,0.0,0 STARLINK-3415,1 51472U 22010S   23190.68387481 -.00000636  00000-0 -21874-4 0  9997,2 51472  53.2187 331.6017 0001124  98.1057 262.0063 15.08837083 80286,6917.889,95.438,540.532,538.977,0.0
51472.0,STARLINK-3415,PAYLOAD,2023-07-10 16:15:33,15.08843668,0.000108,53.2189,327.1426,94.06,266.0516,8.4647e-05,1.06e-05,0.0,0 STARLINK-3415,1 51472U 22010S   23191.67746963  .00001060  00000-0  84647-4 0  9998,2 51472  53.2189 327.1426 0001080  94.0600 266.0516 15.08843668 80432,6917.869,95.437,540.481,538.987,0.0
51472.0,STARLINK-3415,PAYLOAD,2023-07-11 08:09:25,15.08823106,0.0001503,53.2194,324.1708,104.8963,255.2195,0.00020921,3.042e-05,0.0,0 STARLINK-3415,1 51472U 22010S   23192.33987777  .00003042  00000-0  20921-3 0  9998,2 51472  53.2194 324.1708 0001503 104.8963 255.2195 15.08823106 80539,6917.932,95.439,540.837,538.757,0.0
51472.0,STARLINK-3415,PAYLOAD,2023-07-11 20:52:30,15.0883743,0.0001302,53.2178,321.7888,76.631,283.4828,9.3425e-05,1.199e-05,0.0,0 STARLINK-3415,1 51472U 22010S   23192.86979692  .00001199  00000-0  93425-4 0  9994,2 51472  53.2178 321.7888 0001302  76.6310 283.4828 15.08837430 80612,6917.888,95.438,540.654,538.853,0.0
51472.0,STARLINK-3415,PAYLOAD,2023-07-13 17:23:18,15.08843081,9.78e-05,53.2181,313.4613,92.8414,267.269,1.9545e-05,2.3e-07,0.0,0 STARLINK-3415,1 51472U 22010S   23194.72451570  .00000023  00000-0  19545-4 0  9997,2 51472  53.2181 313.4613 0000978  92.8414 267.2690 15.08843081 80899,6917.871,95.437,540.413,539.059,0.0
51472.0,STARLINK-3415,PAYLOAD,2023-07-14 18:49:27,15.08843403,0.0001288,53.2187,308.7028,99.6056,260.5082,0.00023677,3.483e-05,0.0,0 STARLINK-3415,1 51472U 22010S   23195.78434897  .00003483  00000-0  23677-3 0  9990,2 51472  53.2187 308.7028 0001288  99.6056 260.5082 15.08843403 81052,6917.87,95.437,540.626,538.844,0.0
51472.0,STARLINK-3415,PAYLOAD,2023-07-15 12:18:43,15.08838629,0.0001029,53.2184,305.4353,78.108,282.0028,8.7859e-05,1.111e-05,0.0,0 STARLINK-3415,1 51472U 22010S   23196.51299781  .00001111  00000-0  87859-4 0  9992,2 51472  53.2184 305.4353 0001029  78.1080 282.0028 15.08838629 81161,6917.885,95.438,540.461,539.038,0.0
51472.0,STARLINK-3415,PAYLOAD,2023-07-15 17:04:52,15.08846477,0.0001151,53.2191,304.5415,81.9912,278.121,7.0377e-05,8.33e-06,0.0,0 STARLINK-3415,1 51472U 22010S   23196.71171338  .00000833  00000-0  70377-4 0  9998,2 51472  53.2191 304.5415 0001151  81.9912 278.1210 15.08846477 81192,6917.861,95.437,540.522,538.929,0.0
51472.0,STARLINK-3415,PAYLOAD,2023-07-16 07:23:21,15.08832073,0.0001044,53.2184,301.8672,95.1529,264.9583,-3.9585e-05,-9.18e-06,0.0,0 STARLINK-3415,1 51472U 22010S   23197.30788658 -.00000918  00000-0 -39585-4 0  9995,2 51472  53.2184 301.8672 0001044  95.1529 264.9583 15.08832073 81284,6917.905,95.438,540.492,539.047,0.0
51472.0,STARLINK-3415,PAYLOAD,2023-07-16 16:55:39,15.08839887,9.09e-05,53.2177,300.0829,89.4399,270.6697,-7.7571e-05,-1.522e-05,0.0,0 STARLINK-3415,1 51472U 22010S   23197.70532349 -.00001522  00000-0 -77571-4 0  9992,2 51472  53.2177 300.0829 0000909  89.4399 270.6697 15.08839887 81348,6917.881,95.438,540.375,539.117,0.0
51472.0,STARLINK-3415,PAYLOAD,2023-07-17 13:35:39,15.08851371,9.68e-05,53.2176,296.2182,97.3355,262.7747,7.3874e-05,8.88e-06,0.0,0 STARLINK-3415,1 51472U 22010S   23198.56643421  .00000888  00000-0  73874-4 0  9995,2 51472  53.2176 296.2182 0000968  97.3355 262.7747 15.08851371 81474,6917.846,95.437,540.38,539.041,0.0
51472.0,STARLINK-3415,PAYLOAD,2023-07-18 10:15:41,15.08832905,0.0001073,53.2177,292.3527,97.9029,262.2085,0.00010313,1.354e-05,0.0,0 STARLINK-3415,1 51472U 22010S   23199.42756630  .00001354  00000-0  10313-3 0  9995,2 51472  53.2177 292.3527 0001073  97.9029 262.2085 15.08832905 81604,6917.902,95.438,540.509,539.025,0.0
51472.0,STARLINK-3415,PAYLOAD,2023-07-19 13:17:15,15.08835857,0.0001133,53.2179,287.297,98.8058,261.3062,-3.0791e-05,-7.78e-06,0.0,0 STARLINK-3415,1 51472U 22010S   23200.55365353 -.00000778  00000-0 -30791-4 0  9994,2 51472  53.2179 287.2970 0001133  98.8058 261.3062 15.08835857 81772,6917.893,95.438,540.542,538.974,0.0
51472.0,STARLINK-3415,PAYLOAD,2023-07-20 14:43:25,15.08843918,0.0001216,53.2179,282.5392,96.5901,263.523,0.00013147,1.805e-05,0.0,0 STARLINK-3415,1 51472U 22010S   23201.61348494  .00001805  00000-0  13147-3 0  9994,2 51472  53.2179 282.5392 0001216  96.5901 263.5230 15.08843918 81938,6917.868,95.437,540.575,538.892,0.0
51472.0,STARLINK-3415,PAYLOAD,2023-07-21 05:01:53,15.08839264,0.0001148,53.2174,279.8624,84.7956,275.3167,0.00010965,1.458e-05,0.0,0 STARLINK-3415,1 51472U 22010S   23202.20964933  .00001458  00000-0  10965-3 0  9991,2 51472  53.2174 279.8624 0001148  84.7956 275.3167 15.08839264 82023,6917.883,95.438,540.542,538.953,0.0
